{
  "type": "FeatureCollection",
  "features": [
    {
      "type": "Feature",
      "properties": { "name": "Sumatra West Coast", "zone_type": "land" },
      "geometry": {
        "type": "Polygon",
        "coordinates": [[
          [95.0, 6.0], [95.0, -6.0], [106.0, -6.0], [106.0, 0.5],
          [104.5, 1.0], [104.0, 1.5], [103.5, 2.0], [102.0, 3.0],
          [100.0, 4.0], [98.0, 5.0], [96.0, 6.0], [95.0, 6.0]
        ]]
      }
    },
    {
      "type": "Feature",
      "properties": { "name": "Malay Peninsula", "zone_type": "land" },
      "geometry": {
        "type": "Polygon",
        "coordinates": [[
          [103.8, 1.4], [103.9, 1.5], [104.2, 1.8], [104.0, 2.5],
          [103.5, 3.5], [103.0, 4.5], [102.0, 5.5], [101.0, 6.5],
          [100.5, 7.0], [100.0, 7.5], [99.5, 8.0], [99.0, 8.5],
          [98.5, 8.5], [98.0, 8.0], [98.5, 7.0], [99.0, 6.5],
          [99.5, 6.0], [100.0, 5.5], [100.5, 5.0], [101.0, 4.5],
          [101.5, 4.0], [102.0, 3.5], [102.5, 3.0], [103.0, 2.5],
          [103.5, 2.0], [103.7, 1.5], [103.8, 1.4]
        ]]
      }
    },
    {
      "type": "Feature",
      "properties": { "name": "Sri Lanka", "zone_type": "land" },
      "geometry": {
        "type": "Polygon",
        "coordinates": [[
          [79.7, 9.8], [80.0, 9.5], [80.3, 9.0], [80.8, 8.0],
          [81.2, 7.5], [81.8, 7.0], [81.9, 6.5], [81.5, 6.2],
          [81.0, 6.0], [80.5, 6.0], [80.0, 6.3], [79.8, 6.8],
          [79.7, 7.5], [79.8, 8.0], [79.9, 8.5], [79.8, 9.0],
          [79.7, 9.5], [79.7, 9.8]
        ]]
      }
    },
    {
      "type": "Feature",
      "properties": { "name": "India Southern Tip", "zone_type": "land" },
      "geometry": {
        "type": "Polygon",
        "coordinates": [[
          [77.0, 8.5], [77.5, 8.0], [78.0, 8.5], [79.0, 9.5],
          [79.5, 10.0], [80.0, 10.5], [80.5, 11.0], [80.0, 12.0],
          [79.5, 12.5], [79.0, 12.0], [78.5, 11.0], [78.0, 10.0],
          [77.5, 9.5], [77.0, 9.0], [77.0, 8.5]
        ]]
      }
    },
    {
      "type": "Feature",
      "properties": { "name": "Andaman Islands Marine Protected", "zone_type": "marine_protected" },
      "geometry": {
        "type": "Polygon",
        "coordinates": [[
          [92.0, 14.0], [94.0, 14.0], [94.0, 10.5],
          [92.0, 10.5], [92.0, 14.0]
        ]]
      }
    },
    {
      "type": "Feature",
      "properties": { "name": "Nicobar Shallow Zone", "zone_type": "shallow_water" },
      "geometry": {
        "type": "Polygon",
        "coordinates": [[
          [92.5, 10.0], [94.0, 10.0], [94.0, 6.5],
          [92.5, 6.5], [92.5, 10.0]
        ]]
      }
    },
    {
      "type": "Feature",
      "properties": { "name": "Palk Strait Restricted", "zone_type": "shallow_water" },
      "geometry": {
        "type": "Polygon",
        "coordinates": [[
          [79.0, 10.5], [80.5, 10.5], [80.5, 9.0],
          [79.5, 9.0], [79.0, 9.5], [79.0, 10.5]
        ]]
      }
    }
  ]
}
